NORAD_CAT_ID,OBJECT_NAME,OBJECT_TYPE,EPOCH,MEAN_MOTION,ECCENTRICITY,INCLINATION,RA_OF_ASC_NODE,ARG_OF_PERICENTER,MEAN_ANOMALY,BSTAR,MEAN_MOTION_DOT,MEAN_MOTION_DDOT,TLE_LINE0,TLE_LINE1,TLE_LINE2,SEMIMAJOR_AXIS,PERIOD,APOGEE,PERIGEE,DECAYED
51752.0,STARLINK-3511,PAYLOAD,2022-04-18 22:00:00,15.73224435,0.0002452,53.2138,220.8372,25.0516,323.26,-0.00019159,-0.00027455,0.0,0 STARLINK-3511,1 51752U 22016AQ  22108.91667824 -.00027455  00000-0 -19159-3 0  9990,2 51752  53.2138 220.8372 0002452  25.0516 323.2600 15.73224435  3702,6727.826,91.532,351.34,348.041,0.0
51752.0,STARLINK-3511,PAYLOAD,2022-04-19 14:00:01,15.73214708,0.0002501,53.2138,217.5383,19.8688,146.3364,-2.514e-05,-4.151e-05,0.0,0 STARLINK-3511,1 51752U 22016AQ  22109.58334491 -.00004151  00000-0 -25140-4 0  9991,2 51752  53.2138 217.5383 0002501  19.8688 146.3364 15.73214708 10243,6727.853,91.532,351.401,348.036,0.0
51752.0,STARLINK-3511,PAYLOAD,2022-04-20 14:00:01,15.7322105,0.000258,53.2132,212.59,18.3882,54.6292,-0.00041023,-0.00057863,0.0,0 STARLINK-3511,1 51752U 22016AQ  22110.58334491 -.00057863  00000-0 -41023-3 0  9998,2 51752  53.2132 212.5900 0002580  18.3882  54.6292 15.73221050  3706,6727.835,91.532,351.436,347.964,0.0
51752.0,STARLINK-3511,PAYLOAD,2022-04-20 22:00:00,15.73210962,0.0002562,53.2132,210.9396,13.8453,148.1005,-0.00023608,-0.00033643,0.0,0 STARLINK-3511,1 51752U 22016AQ  22110.91667824 -.00033643  00000-0 -23608-3 0  9993,2 51752  53.2132 210.9396 0002562  13.8453 148.1005 15.73210962 10452,6727.864000000001,91.533,351.45300000000015,348.005,0.0
51752.0,STARLINK-3511,PAYLOAD,2022-04-21 06:00:00,15.72773583,0.0002563999999999,53.2162,209.2718,23.1349,227.8487,0.0041836,0.00620639,0.0,0 STARLINK-3511,1 51752U 22016AQ  22111.25001157  .00620639  00000-0  41836-2 0  9999,2 51752  53.2162 209.2718 0002564  23.1349 227.8487 15.72773583 10501,6729.111,91.558,352.702,349.251,0.0
51752.0,STARLINK-3511,PAYLOAD,2022-04-21 14:00:01,15.73190141,0.0002771,53.2132,207.6412,13.7452,326.0403,0.00036226,0.00050511,0.0,0 STARLINK-3511,1 51752U 22016AQ  22111.58334491  .00050511  00000-0  36226-3 0  9999,2 51752  53.2132 207.6412 0002771  13.7452 326.0403 15.73190141  3709,6727.9230000000025,91.534,351.653,347.9240000000001,0.0
51752.0,STARLINK-3511,PAYLOAD,2022-04-21 22:00:00,15.73278012,0.0002784,53.2125,205.9906,15.034,53.7107,-0.00046351,-0.00065401,0.0,0 STARLINK-3511,1 51752U 22016AQ  22111.91667824 -.00065401  00000-0 -46351-3 0  9991,2 51752  53.2125 205.9906 0002784  15.0340  53.7107 15.73278012  3681,6727.6730000000025,91.529,351.411,347.665,0.0
51752.0,STARLINK-3511,PAYLOAD,2022-04-22 06:00:00,15.73268138,0.0002715,53.213,204.3391,22.0969,135.6333,-8.0356e-05,-0.00011919,0.0,0 STARLINK-3511,1 51752U 22016AQ  22112.25001157 -.00011919  00000-0 -80356-4 0  9999,2 51752  53.2130 204.3391 0002715  22.0969 135.6333 15.73268138 10662,6727.701,91.529,351.392,347.73900000000015,0.0
51752.0,STARLINK-3511,PAYLOAD,2022-04-22 14:00:01,15.73238687,0.0002939,53.2129,202.6924,19.5244,227.1899,-0.00047326,-0.00066645,0.0,0 STARLINK-3511,1 51752U 22016AQ  22112.58334491 -.00066645  00000-0 -47326-3 0  9990,2 51752  53.2129 202.6924 0002939  19.5244 227.1899 15.73238687  3716,6727.785,91.531,351.62699999999984,347.673,0.0
51752.0,STARLINK-3511,PAYLOAD,2022-04-22 16:00:00,15.73226063,0.0002951,53.213,202.2802,17.7107,341.2464,-0.00044545,-0.0006276,0.0,0 STARLINK-3511,1 51752U 22016AQ  22112.66667824 -.00062760  00000-0 -44545-3 0  9992,2 51752  53.2130 202.2802 0002951  17.7107 341.2464 15.73226063 10721,6727.821,91.532,351.671,347.7,0.0
51752.0,STARLINK-3511,PAYLOAD,2022-04-23 14:00:01,15.73162257,0.0003096,53.2132,197.7435,11.469,141.9808,0.00053895,0.00075591,0.0,0 STARLINK-3511,1 51752U 22016AQ  22113.58334491  .00075591  00000-0  53895-3 0  9997,2 51752  53.2132 197.7435 0003096  11.4690 141.9808 15.73162257 10879,6728.003000000002,91.535,351.951,347.785,0.0
51752.0,STARLINK-3511,PAYLOAD,2022-04-24 06:00:00,15.732396,0.0002889,53.2132,194.4424,12.1597,319.1666,-0.00021819,-0.0003119,0.0,0 STARLINK-3511,1 51752U 22016AQ  22114.25001157 -.00031190  00000-0 -21819-3 0  9992,2 51752  53.2132 194.4424 0002889  12.1597 319.1666 15.73239600 10973,6727.781999999997,91.531,351.591,347.704,0.0
51752.0,STARLINK-3511,PAYLOAD,2022-04-24 14:00:01,15.73298801,0.0003379,53.2148,192.7869,14.9522,45.3042,-0.0014895,-0.00205599,0.0,0 STARLINK-3511,1 51752U 22016AQ  22114.58334491 -.00205599  00000-0 -14895-2 0  9999,2 51752  53.2148 192.7869 0003379  14.9522  45.3042 15.73298801  3692,6727.614000000001,91.527,351.75199999999984,347.205,0.0
51752.0,STARLINK-3511,PAYLOAD,2022-04-24 22:00:00,15.72874385,0.0003088,53.2163,191.1277,10.0493,139.2516,-0.00013734,-0.00019589,0.0,0 STARLINK-3511,1 51752U 22016AQ  22114.91667824 -.00019589  00000-0 -13734-3 0  9999,2 51752  53.2163 191.1277 0003088  10.0493 139.2516 15.72874385 11083,6728.824000000001,91.552,352.767,348.611,0.0
51752.0,STARLINK-3511,PAYLOAD,2022-04-25 06:00:00,15.72948771,0.0003024,53.2177,189.471,11.0887,226.7529,-0.005634,-0.00719646,0.0,0 STARLINK-3511,1 51752U 22016AQ  22115.25001157 -.00719646  00000-0 -56340-2 0  9998,2 51752  53.2177 189.4710 0003024  11.0887 226.7529 15.72948771 11131,6728.611999999999,91.548,352.511,348.44199999999995,0.0
51752.0,STARLINK-3511,PAYLOAD,2022-04-25 14:00:01,15.72439217,0.000295,53.2177,187.8239,10.7018,315.4528,-0.005776,-0.00721618,0.0,0 STARLINK-3511,1 51752U 22016AQ  22115.58334491 -.00721618  00000-0 -57760-2 0  9993,2 51752  53.2177 187.8239 0002950  10.7018 315.4528 15.72439217  3718,6730.065,91.577,353.915,349.945,0.0
51752.0,STARLINK-3511,PAYLOAD,2022-04-25 22:00:00,15.71927201,0.0002833,53.2175,186.1743,10.0776,43.7797,-0.0058688,-0.00717643,0.0,0 STARLINK-3511,1 51752U 22016AQ  22115.91667824 -.00717643  00000-0 -58688-2 0  9992,2 51752  53.2175 186.1743 0002833  10.0776  43.7797 15.71927201  3704,6731.526,91.607,355.298,351.4840000000001,0.0
51752.0,STARLINK-3511,PAYLOAD,2022-04-26 06:00:00,15.71416592,0.0002973,53.2175,184.5274,12.1812,128.7648,-0.0059821999999999,-0.00715975,0.0,0 STARLINK-3511,1 51752U 22016AQ  22116.25001157 -.00715975  00000-0 -59822-2 0  9998,2 51752  53.2175 184.5274 0002973  12.1812 128.7648 15.71416592 11281,6732.985,91.637,356.851,352.848,0.0
51752.0,STARLINK-3511,PAYLOAD,2022-04-26 14:00:01,15.70904443,0.0003298,53.2175,182.8839,0.8291,226.6578,-0.0060851,-0.00713017,0.0,0 STARLINK-3511,1 51752U 22016AQ  22116.58335648 -.00713017  00000-0 -60851-2 0  9998,2 51752  53.2175 182.8839 0003298   0.8291 226.6578 15.70904443  3709,6734.448,91.667,358.534,354.092,0.0
51752.0,STARLINK-3511,PAYLOAD,2022-04-26 22:00:00,15.70400012,0.0002779,53.2175,181.2381,11.1363,302.1469,-0.0063024,-0.00721997,0.0,0 STARLINK-3511,1 51752U 22016AQ  22116.91667824 -.00721997  00000-0 -63024-2 0  9990,2 51752  53.2175 181.2381 0002779  11.1363 302.1469 15.70400012  3669,6735.89,91.696,359.62699999999984,355.8830000000001,0.0
51752.0,STARLINK-3511,PAYLOAD,2022-04-27 06:00:00,15.69888768,0.0002865,53.2177,179.5951,9.683,28.8506,-0.0064121,-0.00719236,0.0,0 STARLINK-3511,1 51752U 22016AQ  22117.25001157 -.00719236  00000-0 -64121-2 0  9991,2 51752  53.2177 179.5951 0002865   9.6830  28.8506 15.69888768 11446,6737.352,91.726,361.147,357.287,0.0
51752.0,STARLINK-3511,PAYLOAD,2022-04-27 14:00:01,15.69255672,0.0002551,53.217,177.959,282.8165,200.485,-0.0050434,-0.00561493,0.0,0 STARLINK-3511,1 51752U 22016AQ  22117.58335648 -.00561493  00000-0 -50434-2 0  9994,2 51752  53.2170 177.9590 0002551 282.8165 200.4850 15.69255672  3665,6739.1640000000025,91.763,362.74800000000016,359.31,0.0
51752.0,STARLINK-3511,PAYLOAD,2022-04-28 06:00:00,15.68276592,9.93e-05,53.2168,174.6765,72.869,217.7793,-0.0057224,-0.00608057,0.0,0 STARLINK-3511,1 51752U 22016AQ  22118.25001157 -.00608057  00000-0 -57224-2 0  9996,2 51752  53.2168 174.6765 0000993  72.8690 217.7793 15.68276592 11601,6741.969,91.821,364.503,363.164,0.0
51752.0,STARLINK-3511,PAYLOAD,2022-04-28 14:00:01,15.67846548,0.0001122,53.2174,173.0378,61.0958,312.3097,-0.0069391,-0.00715034,0.0,0 STARLINK-3511,1 51752U 22016AQ  22118.58334491 -.00715034  00000-0 -69391-2 0  9994,2 51752  53.2174 173.0378 0001122  61.0958 312.3097 15.67846548 11650,6743.2019999999975,91.846,365.823,364.31,0.0
51752.0,STARLINK-3511,PAYLOAD,2022-04-29 14:00:01,15.6631469,0.0001174,53.2176,168.1313,75.334,182.792,-0.0073421,-0.00711038,0.0,0 STARLINK-3511,1 51752U 22016AQ  22119.58334491 -.00711038  00000-0 -73421-2 0  9994,2 51752  53.2176 168.1313 0001174  75.3340 182.7920 15.66314690 11815,6747.597,91.936,370.255,368.67,0.0
51752.0,STARLINK-3511,PAYLOAD,2022-04-29 22:00:00,15.65807705,0.0001106,53.2176,166.4963,64.3559,274.1181,-0.0075546,-0.00716277,0.0,0 STARLINK-3511,1 51752U 22016AQ  22119.91667824 -.00716277  00000-0 -75546-2 0  9990,2 51752  53.2176 166.4963 0001106  64.3559 274.1181 15.65807705  3709,6749.054,91.965,371.665,370.172,0.0
51752.0,STARLINK-3511,PAYLOAD,2022-04-30 12:00:00,15.64916229,0.0001204,53.2176,163.6436,55.5268,332.0796,-0.0078497,-0.00717905,0.0,0 STARLINK-3511,1 51752U 22016AQ  22120.50001157 -.00717905  00000-0 -78497-2 0  9995,2 51752  53.2176 163.6436 0001204  55.5268 332.0796 15.64916229 11954,6751.6169999999975,92.018,374.295,372.669,0.0
51752.0,STARLINK-3511,PAYLOAD,2022-04-30 14:00:01,15.64783663,0.0001336,53.2173,163.2361,53.3509,83.9802,-0.0077837,-0.00708913,0.0,0 STARLINK-3511,1 51752U 22016AQ  22120.58334491 -.00708913  00000-0 -77837-2 0  9999,2 51752  53.2173 163.2361 0001336  53.3509  83.9802 15.64783663  3689,6751.998000000001,92.026,374.765,372.961,0.0
51752.0,STARLINK-3511,PAYLOAD,2022-04-30 22:00:00,15.64276739,0.0001264,53.2174,161.6047,63.7135,152.1272,-0.0080009,-0.00713649,0.0,0 STARLINK-3511,1 51752U 22016AQ  22120.91667824 -.00713649  00000-0 -80009-2 0  9992,2 51752  53.2174 161.6047 0001264  63.7135 152.1272 15.64276739  3673,6753.456999999999,92.055,376.175,374.468,0.0
